IRIDIUM 7               
1 24793U 97020B   24126.90854232  .00000495  00000+0  16639-3 0  9996
2 24793  86.3976 347.5454 0002312  81.5932 278.5527 14.35187948413468
IRIDIUM 5               
1 24795U 97020D   24126.90678435  .00007198  00000+0  68987-3 0  9997
2 24795  86.3891 270.3264 0124038 151.8429 208.9579 14.87268467424784
IRIDIUM 4               
1 24796U 97020E   24126.87292546  .00000516  00000+0  17050-3 0  9991
2 24796  86.3967 344.7094 0002333  87.9805 272.1659 14.36111548413990
IRIDIUM 914             
1 24836U 97030A   24126.87784871  .00000580  00000+0  17801-3 0  9999
2 24836  86.3959 354.5033 0003806 103.9975 256.1647 14.39963616548498
IRIDIUM 16              
1 24841U 97030F   24126.93095080  .00000582  00000+0  18660-3 0  9995
2 24841  86.4078  16.3380 0002081  27.9129 332.2180 14.37857683408469
IRIDIUM 911             
1 24842U 97030G   24126.97167405  .00000782  00000+0  21175-3 0  9998
2 24842  86.4503  15.4839 0015217  23.4345 336.7548 14.46482306416190
IRIDIUM 17              
1 24870U 97034B   24126.87347185  .00000652  00000+0  21364-3 0  9993
2 24870  86.3989  45.9582 0000659  82.5697 277.5575 14.36949732405078
IRIDIUM 920             
1 24871U 97034C   24126.78285910  .00000616  00000+0  18660-3 0  9996
2 24871  86.4018  26.1801 0011403 357.2144   2.8990 14.40670833407908
